[
    {
        "Altitude(m)": 717803.3810158279,
        "Argument of Periapsis(deg)": 0.0034170363559881197,
        "Eccentricity": 0.0,
        "Inclination(deg)": 45.0,
        "Latitude(deg)": -44.96093180274353,
        "Longitude(deg)": 18.14421001356114,
        "Mean Anomaly(deg)": -94.72183500575574,
        "RAAN(deg)": 214.99677441756256,
        "Satellite Name": "Constellation 1 962",
        "Satellite Number": 962,
        "Semi-Major Axis(m)": 7083131.272910544,
        "Time(s)": 57
    },
    {
        "Altitude(m)": 717805.4035079596,
        "Argument of Periapsis(deg)": 0.003476984362233526,
        "Eccentricity": 0.0,
        "Inclination(deg)": 45.0,
        "Latitude(deg)": -44.96586242788592,
        "Longitude(deg)": 18.225172626989803,
        "Mean Anomaly(deg)": -94.66113386550586,
        "RAAN(deg)": 214.99671782839698,
        "Satellite Name": "Constellation 1 962",
        "Satellite Number": 962,
        "Semi-Major Axis(m)": 7083131.272910544,
        "Time(s)": 58
    },
    {
        "Altitude(m)": 717807.3998785894,
        "Argument of Periapsis(deg)": 0.003536932368478932,
        "Eccentricity": 0.0,
        "Inclination(deg)": 45.0,
        "Latitude(deg)": -44.970729694032286,
        "Longitude(deg)": 18.306149523605733,
        "Mean Anomaly(deg)": -94.60043272525591,
        "RAAN(deg)": 214.99666123923143,
        "Satellite Name": "Constellation 1 962",
        "Satellite Number": 962,
        "Semi-Major Axis(m)": 7083131.272910544,
        "Time(s)": 59
    },
    {
        "Altitude(m)": 717809.3701203223,
        "Argument of Periapsis(deg)": 0.003596880374724337,
        "Eccentricity": 0.0,
        "Inclination(deg)": 45.0,
        "Latitude(deg)": -44.9755335799641,
        "Longitude(deg)": 18.38714085751862,
        "Mean Anomaly(deg)": -94.53973158500604,
        "RAAN(deg)": 214.99660465006582,
        "Satellite Name": "Constellation 1 962",
        "Satellite Number": 962,
        "Semi-Major Axis(m)": 7083131.272910544,
        "Time(s)": 60
    },
    {
        "Altitude(m)": 717811.3142258665,
        "Argument of Periapsis(deg)": 0.0036568283809697427,
        "Eccentricity": 0.0,
        "Inclination(deg)": 45.0,
        "Latitude(deg)": -44.980274064731354,
        "Longitude(deg)": 18.468146278297933,
        "Mean Anomaly(deg)": -94.47903044475618,
        "RAAN(deg)": 214.99654806090027,
        "Satellite Name": "Constellation 1 962",
        "Satellite Number": 962,
        "Semi-Major Axis(m)": 7083131.272910544,
        "Time(s)": 61
    },
    {
        "Altitude(m)": 717813.2321880244,
        "Argument of Periapsis(deg)": 0.003716776387215149,
        "Eccentricity": 0.0,
        "Inclination(deg)": 45.0,
        "Latitude(deg)": -44.98495112765157,
        "Longitude(deg)": 18.549165603363793,
        "Mean Anomaly(deg)": -94.41832930450624,
        "RAAN(deg)": 214.99649147173471,
        "Satellite Name": "Constellation 1 962",
        "Satellite Number": 962,
        "Semi-Major Axis(m)": 7083131.272910544,
        "Time(s)": 62
    },
    {
        "Altitude(m)": 717815.1239996922,
        "Argument of Periapsis(deg)": 0.003776724393460554,
        "Eccentricity": 0.0,
        "Inclination(deg)": 45.0,
        "Latitude(deg)": -44.989564748310606,
        "Longitude(deg)": 18.630198649892275,
        "Mean Anomaly(deg)": -94.35762816425635,
        "RAAN(deg)": 214.99643488256913,
        "Satellite Name": "Constellation 1 962",
        "Satellite Number": 962,
        "Semi-Major Axis(m)": 7083131.272910544,
        "Time(s)": 63
    },
    {
        "Altitude(m)": 717816.9896538638,
        "Argument of Periapsis(deg)": 0.003836672399705959,
        "Eccentricity": 0.0,
        "Inclination(deg)": 45.0,
        "Latitude(deg)": -44.99411490656306,
        "Longitude(deg)": 18.711245234819653,
        "Mean Anomaly(deg)": -94.29692702400638,
        "RAAN(deg)": 214.99637829340358,
        "Satellite Name": "Constellation 1 962",
        "Satellite Number": 962,
        "Semi-Major Axis(m)": 7083131.272910544,
        "Time(s)": 64
    },
    {
        "Altitude(m)": 717818.829143636,
        "Argument of Periapsis(deg)": 0.003896620405951365,
        "Eccentricity": 0.0,
        "Inclination(deg)": 45.0,
        "Latitude(deg)": -44.998601582532814,
        "Longitude(deg)": 18.7923051748444,
        "Mean Anomaly(deg)": -94.23622588375655,
        "RAAN(deg)": 214.99632170423803,
        "Satellite Name": "Constellation 1 962",
        "Satellite Number": 962,
        "Semi-Major Axis(m)": 7083131.272910544,
        "Time(s)": 65
    },
    {
        "Altitude(m)": 717820.6424621915,
        "Argument of Periapsis(deg)": 0.003956568412196771,
        "Eccentricity": 0.0,
        "Inclination(deg)": 45.0,
        "Latitude(deg)": -45.003024756613215,
        "Longitude(deg)": 18.87337828643106,
        "Mean Anomaly(deg)": -94.17552474350668,
        "RAAN(deg)": 214.99626511507242,
        "Satellite Name": "Constellation 1 962",
        "Satellite Number": 962,
        "Semi-Major Axis(m)": 7083131.272910544,
        "Time(s)": 66
    },
    {
        "Altitude(m)": 717822.429602813,
        "Argument of Periapsis(deg)": 0.004016516418442176,
        "Eccentricity": 0.0,
        "Inclination(deg)": 45.0,
        "Latitude(deg)": -45.00738440946796,
        "Longitude(deg)": 18.954464217715913,
        "Mean Anomaly(deg)": -94.11482360325672,
        "RAAN(deg)": 214.99620852590687,
        "Satellite Name": "Constellation 1 962",
        "Satellite Number": 962,
        "Semi-Major Axis(m)": 7083131.272910544,
        "Time(s)": 67
    },
    {
        "Altitude(m)": 717824.1905588862,
        "Argument of Periapsis(deg)": 0.004076464424687581,
        "Eccentricity": 0.0,
        "Inclination(deg)": 45.0,
        "Latitude(deg)": -45.01168052203022,
        "Longitude(deg)": 19.03556312089786,
        "Mean Anomaly(deg)": -94.05412246300685,
        "RAAN(deg)": 214.99615193674128,
        "Satellite Name": "Constellation 1 962",
        "Satellite Number": 962,
        "Semi-Major Axis(m)": 7083131.272910544,
        "Time(s)": 68
    },
    {
        "Altitude(m)": 717825.9253238875,
        "Argument of Periapsis(deg)": 0.004136412430932987,
        "Eccentricity": 0.0,
        "Inclination(deg)": 45.0,
        "Latitude(deg)": -45.015913075504926,
        "Longitude(deg)": 19.11667464366017,
        "Mean Anomaly(deg)": -93.993421322757,
        "RAAN(deg)": 214.99609534757573,
        "Satellite Name": "Constellation 1 962",
        "Satellite Number": 962,
        "Semi-Major Axis(m)": 7083131.272910544,
        "Time(s)": 69
    },
    {
        "Altitude(m)": 717827.6338913849,
        "Argument of Periapsis(deg)": 0.004196360437178394,
        "Eccentricity": 0.0,
        "Inclination(deg)": 45.0,
        "Latitude(deg)": -45.02008205136785,
        "Longitude(deg)": 19.19779860156129,
        "Mean Anomaly(deg)": -93.93272018250705,
        "RAAN(deg)": 214.99603875841018,
        "Satellite Name": "Constellation 1 962",
        "Satellite Number": 962,
        "Semi-Major Axis(m)": 7083131.272910544,
        "Time(s)": 70
    },
    {
        "Altitude(m)": 717829.3162550583,
        "Argument of Periapsis(deg)": 0.004256308443423799,
        "Eccentricity": 0.0,
        "Inclination(deg)": 45.0,
        "Latitude(deg)": -45.02418743136629,
        "Longitude(deg)": 19.278934809940456,
        "Mean Anomaly(deg)": -93.87201904225718,
        "RAAN(deg)": 214.99598216924457,
        "Satellite Name": "Constellation 1 962",
        "Satellite Number": 962,
        "Semi-Major Axis(m)": 7083131.272910544,
        "Time(s)": 71
    },
    {
        "Altitude(m)": 717830.9724086703,
        "Argument of Periapsis(deg)": 0.004316256449669204,
        "Eccentricity": 0.0,
        "Inclination(deg)": 45.0,
        "Latitude(deg)": -45.028229197519565,
        "Longitude(deg)": 19.360083083921747,
        "Mean Anomaly(deg)": -93.81131790200723,
        "RAAN(deg)": 214.99592558007902,
        "Satellite Name": "Constellation 1 962",
        "Satellite Number": 962,
        "Semi-Major Axis(m)": 7083131.272910544,
        "Time(s)": 72
    },
    {
        "Altitude(m)": 717832.6023460877,
        "Argument of Periapsis(deg)": 0.00437620445591461,
        "Eccentricity": 0.0,
        "Inclination(deg)": 45.0,
        "Latitude(deg)": -45.032207332119285,
        "Longitude(deg)": 19.441243238416362,
        "Mean Anomaly(deg)": -93.75061676175737,
        "RAAN(deg)": 214.99586899091344,
        "Satellite Name": "Constellation 1 962",
        "Satellite Number": 962,
        "Semi-Major Axis(m)": 7083131.272910544,
        "Time(s)": 73
    },
    {
        "Altitude(m)": 717834.2060612667,
        "Argument of Periapsis(deg)": 0.004436152462160016,
        "Eccentricity": 0.0,
        "Inclination(deg)": 45.0,
        "Latitude(deg)": -45.03612181773007,
        "Longitude(deg)": 19.52241492002958,
        "Mean Anomaly(deg)": -93.6899156215075,
        "RAAN(deg)": 214.99581240174788,
        "Satellite Name": "Constellation 1 962",
        "Satellite Number": 962,
        "Semi-Major Axis(m)": 7083131.272910544,
        "Time(s)": 74
    },
    {
        "Altitude(m)": 717835.7835482685,
        "Argument of Periapsis(deg)": 0.0044961004684054215,
        "Eccentricity": 0.0,
        "Inclination(deg)": 45.0,
        "Latitude(deg)": -45.0399726371887,
        "Longitude(deg)": 19.6035982794513,
        "Mean Anomaly(deg)": -93.62921448125755,
        "RAAN(deg)": 214.99575581258227,
        "Satellite Name": "Constellation 1 962",
        "Satellite Number": 962,
        "Semi-Major Axis(m)": 7083131.272910544,
        "Time(s)": 75
    }
]